CCSDS_OMM_VERS = 2.0
CREATION_DATE  = 
ORIGINATOR     = 

OBJECT_NAME    = 1998-067XK
OBJECT_ID      = 1998-067XK
CENTER_NAME    = EARTH
REF_FRAME      = TEME
TIME_SYSTEM    = UTC
MEAN_ELEMENT_THEORY = SGP/SGP4

EPOCH          = 2026-01-24T17:45:13.187808
MEAN_MOTION    = 15.77428239
ECCENTRICITY   = .00042277
INCLINATION    = 51.6251
RA_OF_ASC_NODE = 277.4071
ARG_OF_PERICENTER = 143.0939
MEAN_ANOMALY   = 217.0353

EPHEMERIS_TYPE = 0
CLASSIFICATION_TYPE = U
NORAD_CAT_ID   = 65731
ELEMENT_SET_NO = 999
REV_AT_EPOCH   = 1990
BSTAR          = .11894462E-2
MEAN_MOTION_DOT = .20549E-2
MEAN_MOTION_DDOT = 0

CCSDS_OMM_VERS = 2.0
CREATION_DATE  = 
ORIGINATOR     = 

OBJECT_NAME    = RSP-03
OBJECT_ID      = 1998-067XL
CENTER_NAME    = EARTH
REF_FRAME      = TEME
TIME_SYSTEM    = UTC
MEAN_ELEMENT_THEORY = SGP/SGP4

EPOCH          = 2026-01-24T19:08:13.721856
MEAN_MOTION    = 15.86292078
ECCENTRICITY   = .00054416
INCLINATION    = 51.6211
RA_OF_ASC_NODE = 274.7488
ARG_OF_PERICENTER = 161.0679
MEAN_ANOMALY   = 199.0528

EPHEMERIS_TYPE = 0
CLASSIFICATION_TYPE = U
NORAD_CAT_ID   = 65732
ELEMENT_SET_NO = 999
REV_AT_EPOCH   = 1995
BSTAR          = .14626354E-2
MEAN_MOTION_DOT = .390472E-2
MEAN_MOTION_DDOT = 0

CCSDS_OMM_VERS = 2.0
CREATION_DATE  = 
ORIGINATOR     = 

OBJECT_NAME    = YOTSUBA-KULOVER
OBJECT_ID      = 1998-067XN
CENTER_NAME    = EARTH
REF_FRAME      = TEME
TIME_SYSTEM    = UTC
MEAN_ELEMENT_THEORY = SGP/SGP4

EPOCH          = 2026-01-25T03:03:58.928832
MEAN_MOTION    = 15.67202627
ECCENTRICITY   = .00044696
INCLINATION    = 51.6266
RA_OF_ASC_NODE = 280.7696
ARG_OF_PERICENTER = 160.9863
MEAN_ANOMALY   = 199.1301

EPHEMERIS_TYPE = 0
CLASSIFICATION_TYPE = U
NORAD_CAT_ID   = 65941
ELEMENT_SET_NO = 999
REV_AT_EPOCH   = 1664
BSTAR          = .11843275E-2
MEAN_MOTION_DOT = .131213E-2
MEAN_MOTION_DDOT = 0

CCSDS_OMM_VERS = 2.0
CREATION_DATE  = 
ORIGINATOR     = 

OBJECT_NAME    = BOTAN
OBJECT_ID      = 1998-067XP
CENTER_NAME    = EARTH
REF_FRAME      = TEME
TIME_SYSTEM    = UTC
MEAN_ELEMENT_THEORY = SGP/SGP4

EPOCH          = 2026-01-24T18:54:08.154432
MEAN_MOTION    = 15.75992958
ECCENTRICITY   = .00053632
INCLINATION    = 51.6220
RA_OF_ASC_NODE = 279.9774
ARG_OF_PERICENTER = 167.3184
MEAN_ANOMALY   = 192.7951

EPHEMERIS_TYPE = 0
CLASSIFICATION_TYPE = U
NORAD_CAT_ID   = 65942
ELEMENT_SET_NO = 999
REV_AT_EPOCH   = 1662
BSTAR          = .15183628E-2
MEAN_MOTION_DOT = .247627E-2
MEAN_MOTION_DDOT = 0

CCSDS_OMM_VERS = 2.0
CREATION_DATE  = 
ORIGINATOR     = 

OBJECT_NAME    = E-KAGAKU-1
OBJECT_ID      = 1998-067XQ
CENTER_NAME    = EARTH
REF_FRAME      = TEME
TIME_SYSTEM    = UTC
MEAN_ELEMENT_THEORY = SGP/SGP4

EPOCH          = 2026-01-24T17:53:10.011264
MEAN_MOTION    = 15.67057145
ECCENTRICITY   = .0003092
INCLINATION    = 51.6279
RA_OF_ASC_NODE = 282.7241
ARG_OF_PERICENTER = 165.0419
MEAN_ANOMALY   = 195.0669

EPHEMERIS_TYPE = 0
CLASSIFICATION_TYPE = U
NORAD_CAT_ID   = 65943
ELEMENT_SET_NO = 999
REV_AT_EPOCH   = 1658
BSTAR          = .10761698E-2
MEAN_MOTION_DOT = .118261E-2
MEAN_MOTION_DDOT = 0

CCSDS_OMM_VERS = 2.0
CREATION_DATE  = 
ORIGINATOR     = 

OBJECT_NAME    = HRC MONOBLOCK CAMERA
OBJECT_ID      = 1998-067XR
CENTER_NAME    = EARTH
REF_FRAME      = TEME
TIME_SYSTEM    = UTC
MEAN_ELEMENT_THEORY = SGP/SGP4

EPOCH          = 2026-01-24T18:03:02.246976
MEAN_MOTION    = 15.57665609
ECCENTRICITY   = .00006669
INCLINATION    = 51.6291
RA_OF_ASC_NODE = 286.5154
ARG_OF_PERICENTER = 32.7434
MEAN_ANOMALY   = 327.3599

EPHEMERIS_TYPE = 0
CLASSIFICATION_TYPE = U
NORAD_CAT_ID   = 66052
ELEMENT_SET_NO = 999
REV_AT_EPOCH   = 1553
BSTAR          = .68383813E-3
MEAN_MOTION_DOT = .51429E-3
MEAN_MOTION_DDOT = 0

CCSDS_OMM_VERS = 2.0
CREATION_DATE  = 
ORIGINATOR     = 

OBJECT_NAME    = HTV-X1
OBJECT_ID      = 2025-241A
CENTER_NAME    = EARTH
REF_FRAME      = TEME
TIME_SYSTEM    = UTC
MEAN_ELEMENT_THEORY = SGP/SGP4

EPOCH          = 2026-01-25T04:57:48.821184
MEAN_MOTION    = 15.48167532
ECCENTRICITY   = .00110116
INCLINATION    = 51.6319
RA_OF_ASC_NODE = 287.2988
ARG_OF_PERICENTER = 28.2365
MEAN_ANOMALY   = 331.9218

EPHEMERIS_TYPE = 0
CLASSIFICATION_TYPE = U
NORAD_CAT_ID   = 66174
ELEMENT_SET_NO = 999
REV_AT_EPOCH   = 51
BSTAR          = .28434035E-3
MEAN_MOTION_DOT = .14825E-3
MEAN_MOTION_DDOT = 0

CCSDS_OMM_VERS = 2.0
CREATION_DATE  = 
ORIGINATOR     = 

OBJECT_NAME    = SZ-21 MODULE
OBJECT_ID      = 2025-246C
CENTER_NAME    = EARTH
REF_FRAME      = TEME
TIME_SYSTEM    = UTC
MEAN_ELEMENT_THEORY = SGP/SGP4

EPOCH          = 2026-01-25T06:51:40.374144
MEAN_MOTION    = 15.65266546
ECCENTRICITY   = .00032603
INCLINATION    = 41.4751
RA_OF_ASC_NODE = 109.8797
ARG_OF_PERICENTER = 235.9064
MEAN_ANOMALY   = 124.1468

EPHEMERIS_TYPE = 0
CLASSIFICATION_TYPE = U
NORAD_CAT_ID   = 66515
ELEMENT_SET_NO = 999
REV_AT_EPOCH   = 1126
BSTAR          = .40434213E-3
MEAN_MOTION_DOT = .41191E-3
MEAN_MOTION_DDOT = 0

CCSDS_OMM_VERS = 2.0
CREATION_DATE  = 
ORIGINATOR     = 

OBJECT_NAME    = SHENZHOU-22
OBJECT_ID      = 2025-272A
CENTER_NAME    = EARTH
REF_FRAME      = TEME
TIME_SYSTEM    = UTC
MEAN_ELEMENT_THEORY = SGP/SGP4

EPOCH          = 2026-01-25T05:53:25.723968
MEAN_MOTION    = 15.61047675
ECCENTRICITY   = .00099245
INCLINATION    = 41.4666
RA_OF_ASC_NODE = 112.2238
ARG_OF_PERICENTER = 357.6550
MEAN_ANOMALY   = 2.4241

EPHEMERIS_TYPE = 0
CLASSIFICATION_TYPE = U
NORAD_CAT_ID   = 66645
ELEMENT_SET_NO = 999
REV_AT_EPOCH   = 26764
BSTAR          = .35035124E-3
MEAN_MOTION_DOT = .30178E-3
MEAN_MOTION_DDOT = 0

CCSDS_OMM_VERS = 2.0
CREATION_DATE  = 
ORIGINATOR     = 

OBJECT_NAME    = SOYUZ-MS 28
OBJECT_ID      = 2025-275A
CENTER_NAME    = EARTH
REF_FRAME      = TEME
TIME_SYSTEM    = UTC
MEAN_ELEMENT_THEORY = SGP/SGP4

EPOCH          = 2026-01-25T04:57:48.821184
MEAN_MOTION    = 15.48167532
ECCENTRICITY   = .00110116
INCLINATION    = 51.6319
RA_OF_ASC_NODE = 287.2988
ARG_OF_PERICENTER = 28.2365
MEAN_ANOMALY   = 331.9218

EPHEMERIS_TYPE = 0
CLASSIFICATION_TYPE = U
NORAD_CAT_ID   = 66664
ELEMENT_SET_NO = 999
REV_AT_EPOCH   = 128
BSTAR          = .28434035E-3
MEAN_MOTION_DOT = .14825E-3
MEAN_MOTION_DDOT = 0

CCSDS_OMM_VERS = 2.0
CREATION_DATE  = 
ORIGINATOR     = 

OBJECT_NAME    = DUPLEX
OBJECT_ID      = 1998-067XS
CENTER_NAME    = EARTH
REF_FRAME      = TEME
TIME_SYSTEM    = UTC
MEAN_ELEMENT_THEORY = SGP/SGP4

EPOCH          = 2026-01-24T22:33:57.516192
MEAN_MOTION    = 15.53137539
ECCENTRICITY   = .00018824
INCLINATION    = 51.6306
RA_OF_ASC_NODE = 287.7709
ARG_OF_PERICENTER = 54.3804
MEAN_ANOMALY   = 305.7361

EPHEMERIS_TYPE = 0
CLASSIFICATION_TYPE = U
NORAD_CAT_ID   = 66906
ELEMENT_SET_NO = 999
REV_AT_EPOCH   = 832
BSTAR          = .55194633E-3
MEAN_MOTION_DOT = .34926E-3
MEAN_MOTION_DDOT = 0

CCSDS_OMM_VERS = 2.0
CREATION_DATE  = 
ORIGINATOR     = 

OBJECT_NAME    = 1998-067XT
OBJECT_ID      = 1998-067XT
CENTER_NAME    = EARTH
REF_FRAME      = TEME
TIME_SYSTEM    = UTC
MEAN_ELEMENT_THEORY = SGP/SGP4

EPOCH          = 2026-01-24T17:33:59.573664
MEAN_MOTION    = 15.58344051
ECCENTRICITY   = .0003231
INCLINATION    = 51.6289
RA_OF_ASC_NODE = 287.8796
ARG_OF_PERICENTER = 118.4461
MEAN_ANOMALY   = 241.6857

EPHEMERIS_TYPE = 0
CLASSIFICATION_TYPE = U
NORAD_CAT_ID   = 66907
ELEMENT_SET_NO = 999
REV_AT_EPOCH   = 830
BSTAR          = .13425305E-2
MEAN_MOTION_DOT = .104793E-2
MEAN_MOTION_DDOT = 0

